#cP2005  4 29 00 00 00.00000000    2880 *POS* WGS84 FIT DLR*
## 1320 432000.00000000    30.00000000 53489 0.0000000000000
+    1   L06  0  0  0  0  0  0  0  0  0  0  0  0  0  0  0  0
+          0  0  0  0  0  0  0  0  0  0  0  0  0  0  0  0  0
+          0  0  0  0  0  0  0  0  0  0  0  0  0  0  0  0  0
+          0  0  0  0  0  0  0  0  0  0  0  0  0  0  0  0  0
+          0  0  0  0  0  0  0  0  0  0  0  0  0  0  0  0  0
++         0  0  0  0  0  0  0  0  0  0  0  0  0  0  0  0  0
++         0  0  0  0  0  0  0  0  0  0  0  0  0  0  0  0  0
++         0  0  0  0  0  0  0  0  0  0  0  0  0  0  0  0  0
++         0  0  0  0  0  0  0  0  0  0  0  0  0  0  0  0  0
++         0  0  0  0  0  0  0  0  0  0  0  0  0  0  0  0  0
%c cc cc ccc ccc cccc cccc cccc cccc ccccc ccccc ccccc ccccc
%c cc cc ccc ccc cccc cccc cccc cccc ccccc ccccc ccccc ccccc
%f   .0000000   .000000000   .00000000000   .000000000000000
%f   .0000000   .000000000   .00000000000   .000000000000000
%i    0    0    0    0      0      0      0      0         0
%i    0    0    0    0      0      0      0      0         0
/* NOTE: CCCCCCCCCCCCCCCCCCCCCCCCCCCCCCCCCCCCCCCCCCCCCCCCCCC
/* CCCCCCCCCCCCCCCCCCCCCCCCCCCCCCCCCCCCCCCCCCCCCCCCCCCCCCCCC
/* CCCCCCCCCCCCCCCCCCCCCCCCCCCCCCCCCCCCCCCCCCCCCCCCCCCCCCCCC
/* CCCCCCCCCCCCCCCCCCCCCCCCCCCCCCCCCCCCCCCCCCCCCCCCCCCCCCCCC
*  2005 04 29 16 16 30.00000000
PL06    315.410126    100.389851  -6736.678860 999999.000000
*  2005 04 29 16 17 00.00000000
PL06    291.304656    328.574958  -6730.502303 999999.000000
*  2005 04 29 16 17 30.00000000
PL06    267.859916    556.483860  -6716.480102 999999.000000
*  2005 04 29 16 18 00.00000000
PL06    245.101250    783.849791  -6694.628336 999999.000000
*  2005 04 29 16 18 30.00000000
PL06    223.052032   1010.406457  -6664.972073 999999.000000
*  2005 04 29 16 19 00.00000000
PL06    201.733648   1235.888343  -6627.545358 999999.000000
*  2005 04 29 16 19 30.00000000
PL06    181.165474   1460.031025  -6582.391193 999999.000000
*  2005 04 29 16 20 00.00000000
PL06    161.364864   1682.571496  -6529.561482 999999.000000
*  2005 04 29 16 20 30.00000000
PL06    142.347140   1903.248463  -6469.116953 999999.000000
*  2005 04 29 16 21 00.00000000
PL06    124.125582   2121.802623  -6401.127099 999999.000000
*  2005 04 29 16 21 30.00000000
PL06    106.711422   2337.976963  -6325.670123 999999.000000
*  2005 04 29 16 22 00.00000000
PL06     90.113841   2551.517061  -6242.832863 999999.000000
*  2005 04 29 16 22 30.00000000
PL06     74.339971   2762.171399  -6152.710709 999999.000000
*  2005 04 29 16 23 00.00000000
PL06     59.394905   2969.691660  -6055.407486 999999.000000
*  2005 04 29 16 23 30.00000000
PL06     45.281703   3173.833011  -5951.035342 999999.000000
*  2005 04 29 16 24 00.00000000
PL06     32.001405   3374.354381  -5839.714625 999999.000000
*  2005 04 29 16 24 30.00000000
PL06     19.553040   3571.018743  -5721.573767 999999.000000
*  2005 04 29 16 25 00.00000000
PL06      7.933647   3763.593392  -5596.749154 999999.000000
*  2005 04 29 16 25 30.00000000
PL06     -2.861696   3951.850232  -5465.384985 999999.000000
*  2005 04 29 16 26 00.00000000
PL06    -12.839843   4135.566047  -5327.633122 999999.000000
*  2005 04 29 16 26 30.00000000
PL06    -22.009556   4314.522779  -5183.652930 999999.000000
*  2005 04 29 16 27 00.00000000
PL06    -30.381471   4488.507790  -5033.611102 999999.000000
*  2005 04 29 16 27 30.00000000
PL06    -37.968062   4657.314125  -4877.681484 999999.000000
*  2005 04 29 16 28 00.00000000
PL06    -44.783603   4820.740773  -4716.044879 999999.000000
*  2005 04 29 16 28 30.00000000
PL06    -50.844125   4978.592908  -4548.888853 999999.000000
*  2005 04 29 16 29 00.00000000
PL06    -56.167370   5130.682143  -4376.407529 999999.000000
*  2005 04 29 16 29 30.00000000
PL06    -60.772744   5276.826760  -4198.801368 999999.000000
*  2005 04 29 16 30 00.00000000
PL06    -64.681267   5416.851942  -4016.276942 999999.000000
*  2005 04 29 16 30 30.00000000
PL06    -67.915515   5550.589996  -3829.046703 999999.000000
*  2005 04 29 16 31 00.00000000
PL06    -70.499568   5677.880555  -3637.328740 999999.000000
*  2005 04 29 16 31 30.00000000
PL06    -72.458945   5798.570790  -3441.346539 999999.000000
*  2005 04 29 16 32 00.00000000
PL06    -73.820549   5912.515608  -3241.328730 999999.000000
*  2005 04 29 16 32 30.00000000
PL06    -74.612595   6019.577844  -3037.508823 999999.000000
*  2005 04 29 16 33 00.00000000
PL06    -74.864547   6119.628444  -2830.124933 999999.000000
*  2005 04 29 16 33 30.00000000
PL06    -74.607045   6212.546630  -2619.419502 999999.000000
*  2005 04 29 16 34 00.00000000
PL06    -73.871839   6298.220055  -2405.639024 999999.000000
*  2005 04 29 16 34 30.00000000
PL06    -72.691710   6376.544960  -2189.033750 999999.000000
*  2005 04 29 16 35 00.00000000
PL06    -71.100400   6447.426317  -1969.857402 999999.000000
*  2005 04 29 16 35 30.00000000
PL06    -69.132528   6510.777956  -1748.366863 999999.000000
*  2005 04 29 16 36 00.00000000
PL06    -66.823515   6566.522682  -1524.821874 999999.000000
*  2005 04 29 16 36 30.00000000
PL06    -64.209501   6614.592374  -1299.484724 999999.000000
*  2005 04 29 16 37 00.00000000
PL06    -61.327262   6654.928085  -1072.619936 999999.000000
*  2005 04 29 16 37 30.00000000
PL06    -58.214127   6687.480120   -844.493954 999999.000000
*  2005 04 29 16 38 00.00000000
PL06    -54.907891   6712.208109   -615.374826 999999.000000
*  2005 04 29 16 38 30.00000000
PL06    -51.446734   6729.081069   -385.531876 999999.000000
*  2005 04 29 16 39 00.00000000
PL06    -47.869128   6738.077452   -155.235384 999999.000000
*  2005 04 29 16 39 30.00000000
PL06    -44.213750   6739.185179     75.243748 999999.000000
*  2005 04 29 16 40 00.00000000
PL06    -40.519396   6732.401665    305.634321 999999.000000
*  2005 04 29 16 40 30.00000000
PL06    -36.824888   6717.733825    535.665174 999999.000000
*  2005 04 29 16 41 00.00000000
PL06    -33.168990   6695.198075    765.065509 999999.000000
*  2005 04 29 16 41 30.00000000
PL06    -29.590321   6664.820324    993.565233 999999.000000
*  2005 04 29 16 42 00.00000000
PL06    -26.127276   6626.635932   1220.895289 999999.000000
*  2005 04 29 16 42 30.00000000
PL06    -22.817941   6580.689664   1446.787987 999999.000000
*  2005 04 29 16 43 00.00000000
PL06    -19.700011   6527.035625   1670.977328 999999.000000
*  2005 04 29 16 43 30.00000000
PL06    -16.810697   6465.737194   1893.199314 999999.000000
*  2005 04 29 16 44 00.00000000
PL06    -14.186645   6396.866949   2113.192277 999999.000000
*  2005 04 29 16 44 30.00000000
PL06    -11.863852   6320.506566   2330.697189 999999.000000
*  2005 04 29 16 45 00.00000000
PL06     -9.877581   6236.746724   2545.457967 999999.000000
*  2005 04 29 16 45 30.00000000
PL06     -8.262292   6145.686997   2757.221790 999999.000000
*  2005 04 29 16 46 00.00000000
PL06     -7.051560   6047.435715   2965.739427 999999.000000
*  2005 04 29 16 46 30.00000000
PL06     -6.277989   5942.109789   3170.765512 999999.000000
*  2005 04 29 16 47 00.00000000
PL06     -5.973137   5829.834603   3372.058780 999999.000000
*  2005 04 29 16 47 30.00000000
PL06     -6.167447   5710.743931   3569.382393 999999.000000
*  2005 04 29 16 48 00.00000000
PL06     -6.890189   5584.979734   3762.504285 999999.000000
*  2005 04 29 16 48 30.00000000
PL06     -8.169383   5452.691947   3951.197427 999999.000000
*  2005 04 29 16 49 00.00000000
PL06    -10.031730   5314.038288   4135.240101 999999.000000
*  2005 04 29 16 49 30.00000000
PL06    -12.502557   5169.184049   4314.416178 999999.000000
*  2005 04 29 16 50 00.00000000
PL06    -15.605742   5018.301830   4488.515373 999999.000000
*  2005 04 29 16 50 30.00000000
PL06    -19.363647   4861.571311   4657.333421 999999.000000
*  2005 04 29 16 51 00.00000000
PL06    -23.797069   4699.179065   4820.672290 999999.000000
*  2005 04 29 16 51 30.00000000
PL06    -28.925188   4531.318342   4978.340425 999999.000000
*  2005 04 29 16 52 00.00000000
PL06    -34.765497   4358.188846   5130.152964 999999.000000
*  2005 04 29 16 52 30.00000000
PL06    -41.333772   4179.996508   5275.931982 999999.000000
*  2005 04 29 16 53 00.00000000
PL06    -48.644031   3996.953211   5415.506709 999999.000000
*  2005 04 29 16 53 30.00000000
PL06    -56.708493   3809.276516   5548.713725 999999.000000
*  2005 04 29 16 54 00.00000000
PL06    -65.537526   3617.189389   5675.397139 999999.000000
*  2005 04 29 16 54 30.00000000
PL06    -75.139625   3420.919917   5795.408762 999999.000000
*  2005 04 29 16 55 00.00000000
PL06    -85.521378   3220.701030   5908.608250 999999.000000
*  2005 04 29 16 55 30.00000000
PL06    -96.687434   3016.770236   6014.863263 999999.000000
*  2005 04 29 16 56 00.00000000
PL06   -108.640480   2809.369335   6114.049626 999999.000000
*  2005 04 29 16 56 30.00000000
PL06   -121.381226   2598.744125   6206.051464 999999.000000
*  2005 04 29 16 57 00.00000000
PL06   -134.908381   2385.144101   6290.761322 999999.000000
*  2005 04 29 16 57 30.00000000
PL06   -149.218643   2168.822173   6368.080294 999999.000000
*  2005 04 29 16 58 00.00000000
PL06   -164.306678   1950.034348   6437.918141 999999.000000
*  2005 04 29 16 58 30.00000000
PL06   -180.165120   1729.039417   6500.193379 999999.000000
*  2005 04 29 16 59 00.00000000
PL06   -196.784567   1506.098648   6554.833358 999999.000000
*  2005 04 29 16 59 30.00000000
PL06   -214.153585   1281.475482   6601.774340 999999.000000
*  2005 04 29 17 00 00.00000000
PL06   -232.258698   1055.435233   6640.961560 999999.000000
*  2005 04 29 17 00 30.00000000
PL06   -251.084402    828.244780   6672.349304 999999.000000
*  2005 04 29 17 01 00.00000000
PL06   -270.613183    600.172244   6695.900961 999999.000000
*  2005 04 29 17 01 30.00000000
PL06   -290.825532    371.486676   6711.589060 999999.000000
*  2005 04 29 17 02 00.00000000
PL06   -311.699968    142.457733   6719.395301 999999.000000
*  2005 04 29 17 02 30.00000000
PL06   -333.213060    -86.644638   6719.310567 999999.000000
EOF
